[{"icaoId":"KATL","receiptTime":"2026-03-03T06:02:20.759Z","obsTime":1772517540,"reportTime":"2026-03-03T05:59:00.000Z","temp":10.6,"dewp":4.4,"wdir":90,"wspd":10,"visib":"10+","altim":1027.5,"qcField":12,"metarType":"SPECI","rawOb":"SPECI KATL 030559Z 09010KT 10SM BKN018 BKN130 11/04 A3034 RMK AO2 T01060044 $","lat":33.6297,"lon":-84.4422,"elev":309,"name":"Atlanta/Hartsfield-Jackson Intl, GA, US","cover":"BKN","clouds":[{"cover":"BKN","base":1800},{"cover":"BKN","base":13000}],"fltCat":"MVFR"},{"icaoId":"KSFO","receiptTime":"2026-03-03T06:02:25.414Z","obsTime":1772517360,"reportTime":"2026-03-03T06:00:00.000Z","temp":12.8,"dewp":11.1,"wdir":280,"wspd":10,"visib":"10+","altim":1019.7,"slp":1019.6,"qcField":4,"presTend":0.9,"maxT":17.2,"minT":12.8,"metarType":"METAR","rawOb":"METAR KSFO 030556Z 28010KT 10SM FEW200 13/11 A3011 RMK AO2 SLP196 T01280111 10172 20128 51009","lat":37.6196,"lon":-122.3656,"elev":2,"name":"San Francisco Intl, CA, US","cover":"FEW","clouds":[{"cover":"FEW","base":20000}],"fltCat":"VFR"},{"icaoId":"KICT","receiptTime":"2026-03-03T05:56:48.515Z","obsTime":1772517180,"reportTime":"2026-03-03T06:00:00.000Z","temp":6.1,"dewp":5,"wdir":110,"wspd":6,"visib":"10+","altim":1015.3,"slp":1015.7,"qcField":4,"presTend":-1.4,"maxT":7.8,"minT":6.1,"maxT24":8.9,"minT24":1.1,"pcp6hr":0.005,"metarType":"METAR","rawOb":"METAR KICT 030553Z 11006KT 10SM BKN008 BKN040 OVC200 06/05 A2998 RMK AO2 SLP157 60000 T00610050 10078 20061 400890011 55014","lat":37.6475,"lon":-97.43,"elev":428,"name":"Wichita/Eisenhower Arpt, KS, US","cover":"OVC","clouds":[{"cover":"BKN","base":800},{"cover":"BKN","base":4000},{"cover":"OVC","base":20000}],"fltCat":"IFR"},{"icaoId":"KLAX","receiptTime":"2026-03-03T05:58:51.109Z","obsTime":1772517180,"reportTime":"2026-03-03T06:00:00.000Z","temp":13.9,"dewp":12.8,"wdir":90,"wspd":5,"visib":"10+","altim":1015.3,"slp":1014.9,"qcField":4,"presTend":0.9,"maxT":17.2,"minT":13.9,"metarType":"METAR","rawOb":"METAR KLAX 030553Z 09005KT 10SM CLR 14/13 A2998 RMK AO2 SLP149 T01390128 10172 20139 53009","lat":33.9382,"lon":-118.3866,"elev":30,"name":"Los Angeles Intl, CA, US","cover":"CLR","clouds":[],"fltCat":"VFR"},{"icaoId":"KDEN","receiptTime":"2026-03-03T05:58:48.801Z","obsTime":1772517180,"reportTime":"2026-03-03T06:00:00.000Z","temp":7.2,"dewp":-4.4,"wdir":310,"wspd":8,"visib":"10+","altim":1011.3,"slp":1007.1,"qcField":4,"presTend":0.6,"maxT":17.2,"minT":6.1,"metarType":"METAR","rawOb":"METAR KDEN 030553Z 31008KT 10SM FEW120 07/M04 A2986 RMK AO2 SLP071 T00721044 10172 20061 51006","lat":39.8466,"lon":-104.6562,"elev":1656,"name":"Denver Intl, CO, US","cover":"FEW","clouds":[{"cover":"FEW","base":12000}],"fltCat":"VFR"},{"icaoId":"KMCI","receiptTime":"2026-03-03T05:56:53.220Z","obsTime":1772517180,"reportTime":"2026-03-03T06:00:00.000Z","temp":3.3,"dewp":3.3,"wdir":90,"wspd":8,"visib":0.5,"altim":1017.7,"slp":1018.1,"qcField":4,"wxString":"BR","presTend":-1.3,"maxT":3.9,"minT":3.3,"maxT24":4.4,"minT24":0.6,"precip":0.005,"pcp6hr":0.01,"metarType":"METAR","rawOb":"METAR KMCI 030553Z 09008KT 1/2SM R19R/P6000FT BR OVC002 03/03 A3005 RMK AO2 SFC VIS 2 1/2 SLP181 DZE30 P0000 60001 T00330033 10039 20033 400440006 58013","lat":39.2975,"lon":-94.7309,"elev":308,"name":"Kansas City Intl, MO, US","cover":"OVC","clouds":[{"cover":"OVC","base":200}],"fltCat":"LIFR"},{"icaoId":"KORD","receiptTime":"2026-03-03T05:56:31.535Z","obsTime":1772517060,"reportTime":"2026-03-03T06:00:00.000Z","temp":2.2,"dewp":-8.3,"wdir":110,"wspd":5,"visib":"10+","altim":1023.5,"slp":1024,"qcField":12,"presTend":-1.1,"maxT":2.8,"minT":1.1,"maxT24":15,"minT24":-4.4,"metarType":"METAR","rawOb":"METAR KORD 030551Z 11005KT 10SM OVC180 02/M08 A3022 RMK AO2 SLP240 T00221083 10028 20011 401501044 55011 $","lat":41.9602,"lon":-87.9316,"elev":202,"name":"Chicago/O'Hare Intl, IL, US","cover":"OVC","clouds":[{"cover":"OVC","base":18000}],"fltCat":"VFR"},{"icaoId":"KJFK","receiptTime":"2026-03-03T05:58:47.269Z","obsTime":1772517060,"reportTime":"2026-03-03T06:00:00.000Z","temp":-1.7,"dewp":-5.6,"wdir":70,"wspd":3,"visib":"10+","altim":1038,"slp":1037.8,"qcField":4,"presTend":-0.5,"maxT":-1.7,"minT":-4.4,"snow":4000,"metarType":"METAR","rawOb":"METAR KJFK 030551Z 07003KT 10SM OVC060 M02/M06 A3065 RMK AO2 SLP378 4/004 T10171056 11017 21044 58005","lat":40.6392,"lon":-73.7639,"elev":3,"name":"New York/JF Kennedy Intl, NY, US","cover":"OVC","clouds":[{"cover":"OVC","base":6000}],"fltCat":"VFR"}]